GLOBALSTAR M068         
1 32266U 07048D   25344.64207894 -.00000065  00000+0  21821-3 0  9994
2 32266  51.9869 124.3559 0001830 136.2626 236.8253 12.62834977839857
GLOBALSTAR M079         
1 37188U 10054A   25344.38119730 -.00000080  00000+0  13211-3 0  9996
2 37188  52.0056 323.4238 0000426  13.3547 138.2191 12.62269083698701
GLOBALSTAR M074         
1 37189U 10054B   25344.64969429 -.00000086  00000+0  96408-4 0  9990
2 37189  52.0036 321.9015 0000538  53.1664 118.8354 12.62264031699346
GLOBALSTAR M076         
1 37190U 10054C   25344.43857878 -.00000084  00000+0  11298-3 0  9994
2 37190  52.0047 322.7326 0000591  35.8309 135.1776 12.62267941699035
GLOBALSTAR M077         
1 37191U 10054D   25344.35173860 -.00000064  00000+0  25567-3 0  9990
2 37191  52.0110 298.9761 0000742  13.2306 156.0377 11.68138688699072
GLOBALSTAR M075         
1 37192U 10054E   25344.44605961 -.00000087  00000+0  92611-4 0  9993
2 37192  51.9967   4.8665 0000311 100.2887  46.3225 12.62270344698108
GLOBALSTAR M073         
1 37193U 10054F   25344.12093131 -.00000077  00000+0  14806-3 0  9997
2 37193  52.0068 279.8135 0000723  37.6945  68.6090 12.62265023700057
GLOBALSTAR M083         
1 37739U 11033A   25344.66866580 -.00000093  00000+0  59737-4 0  9997
2 37739  51.9846 226.6329 0000849  60.1018 318.3860 12.62265457669146
GLOBALSTAR M088         
1 37740U 11033B   25344.40638646 -.00000100  00000+0  19652-4 0  9992
2 37740  52.0194 133.3996 0001071 107.2921 277.9911 12.62271003664656
GLOBALSTAR M091         
1 37741U 11033C   25344.57552465 -.00000090  00000+0  74796-4 0  9993
2 37741  51.9997  96.1300 0000744 127.3547 246.1827 12.62262378665463
GLOBALSTAR M085         
1 37742U 11033D   25344.48305359 -.00000088  00000+0  86945-4 0  9998
2 37742  52.0147  47.5387 0000397 152.1844 221.6700 12.62267195665963
GLOBALSTAR M081         
1 37743U 11033E   25344.36516728 -.00000085  00000+0  10368-3 0  9992
2 37743  51.9975  50.5471 0000349 118.7872 319.6747 12.62270772666094
GLOBALSTAR M089         
1 37744U 11033F   25344.31110888 -.00000078  00000+0  14530-3 0  9992
2 37744  51.9955   4.9074 0000555  78.3177 295.0173 12.62262145666931
GLOBALSTAR M084         
1 38040U 11080A   25344.43857410 -.00000092  00000+0  67406-4 0  9993
2 38040  52.0002 231.9023 0001198  66.2641 105.4571 12.62266446644927
GLOBALSTAR M080         
1 38041U 11080B   25344.40990705 -.00000068  00000+0  20097-3 0  9993
2 38041  52.0050 233.6422 0000633  97.7175  73.6720 12.62264789645041
GLOBALSTAR M082         
1 38042U 11080C   25344.34601155 -.00000096  00000+0  45672-4 0  9993
2 38042  52.0050 189.3176 0000853  99.1585  71.3530 12.62266127645749
GLOBALSTAR M092         
1 38043U 11080D   25344.55742556 -.00000075  00000+0  16265-3 0  9990
2 38043  52.0094 279.0603 0000677  58.6548 112.5897 12.62268224644229
GLOBALSTAR M090         
1 38044U 11080E   25344.05513551 -.00000096  00000+0  41290-4 0  9997
2 38044  52.0096 184.0982 0000915  82.2366  84.7782 12.62265361645822
GLOBALSTAR M086         
1 38045U 11080F   25344.31799663 -.00000089  00000+0  82102-4 0  9996
2 38045  51.9870 183.5353 0001343  33.4253 138.1439 12.62281013645809
GLOBALSTAR M097         
1 39072U 13005A   25344.62508560 -.00000103  00000+0  59360-5 0  9992
2 39072  52.0044  97.3335 0000644 108.8056 251.2880 12.62267758593098
GLOBALSTAR M093         
1 39073U 13005B   25344.59900472 -.00000089  00000+0  83485-4 0  9994
2 39073  52.0106  90.6891 0000401 117.5925 242.4983 12.62271005593045
GLOBALSTAR M094         
1 39074U 13005C   25344.44047527 -.00000092  00000+0  66633-4 0  9992
2 39074  51.9977   5.4776 0000065  41.8867 318.2004 12.62265255594638
GLOBALSTAR M096         
1 39075U 13005D   25344.45354024 -.00000083  00000+0  11662-3 0  9998
2 39075  52.0089  54.0882 0000362 142.4912 217.5980 12.62269291593550
GLOBALSTAR M078         
1 39076U 13005E   25344.42756780 -.00000107  00000+0 -15380-4 0  9991
2 39076  51.9849 138.4403 0001025 156.5088 203.5825 12.62272376592174
GLOBALSTAR M095         
1 39077U 13005F   25344.45378631 -.00000104  00000+0  92629-6 0  9999
2 39077  52.0056 135.6957 0000678 125.0417 235.0513 12.62267239592031
GLOBALSTAR M087         
1 52888U 22064A   25344.54598714 -.00000070  00000+0  18758-3 0  9995
2 52888  52.0005 276.7616 0000517  41.7602 318.3304 12.62261191167314
